{
  "type": "FeatureCollection",
  "features": [
    {
      "type": "Feature",
      "properties": {
        "norad_id": 35142,
        "name": "FENGYUN 1C DEB",
        "group": "fengyun-1c-debris",
        "lat": -79.0183454977214,
        "lon": 40.06135389643124,
        "alt_km": 918.2673518846959,
        "timestamp": "2025-12-18T21:31:51.288978+00:00",
        "meta_object_name": "FENGYUN 1C DEB",
        "meta_object_id": "1999-025DLW",
        "meta_epoch": "2025-12-16T06:06:10.234368",
        "meta_mean_motion": 13.90508934,
        "meta_eccentricity": 0.01077729,
        "meta_inclination": 99.0452,
        "meta_ra_of_asc_node": 342.3158,
        "meta_arg_of_pericenter": 204.4667,
        "meta_mean_anomaly": 168.1585,
        "meta_ephemeris_type": 0,
        "meta_classification_type": "U",
        "meta_norad_cat_id": 35142,
        "meta_element_set_no": 999,
        "meta_rev_at_epoch": 85738,
        "meta_bstar": 0.00020062048,
        "meta_mean_motion_dot": 2.18e-06,
        "meta_mean_motion_ddot": 0,
        "tle_line1": "1 35142U 99025DLW 25350.25428512  .00000218  00000+0  20062-3 0  9997",
        "tle_line2": "2 35142  99.0452 342.3158 0107772 204.4667 168.1585 13.90508934857382"
      },
      "geometry": {
        "type": "Point",
        "coordinates": [
          40.06135389643124,
          -79.0183454977214
        ]
      }
    },
    {
      "type": "Feature",
      "properties": {
        "norad_id": 35144,
        "name": "FENGYUN 1C DEB",
        "group": "fengyun-1c-debris",
        "lat": -74.82255038474966,
        "lon": -105.82275324715535,
        "alt_km": 700.9278431613575,
        "timestamp": "2025-12-18T21:31:51.288988+00:00",
        "meta_object_name": "FENGYUN 1C DEB",
        "meta_object_id": "1999-025DLY",
        "meta_epoch": "2025-12-15T03:29:25.584864",
        "meta_mean_motion": 14.59259684,
        "meta_eccentricity": 0.00266192,
        "meta_inclination": 98.6997,
        "meta_ra_of_asc_node": 104.611,
        "meta_arg_of_pericenter": 353.8009,
        "meta_mean_anomaly": 6.2856,
        "meta_ephemeris_type": 0,
        "meta_classification_type": "U",
        "meta_norad_cat_id": 35144,
        "meta_element_set_no": 999,
        "meta_rev_at_epoch": 65248,
        "meta_bstar": 0.0015089834,
        "meta_mean_motion_dot": 7.114e-05,
        "meta_mean_motion_ddot": 0,
        "tle_line1": "1 35144U 99025DLY 25349.14543501  .00007114  00000+0  15090-2 0  9997",
        "tle_line2": "2 35144  98.6997 104.6110 0026619 353.8009   6.2856 14.59259684652487"
      },
      "geometry": {
        "type": "Point",
        "coordinates": [
          -105.82275324715535,
          -74.82255038474966
        ]
      }
    },
    {
      "type": "Feature",
      "properties": {
        "norad_id": 35147,
        "name": "FENGYUN 1C DEB",
        "group": "fengyun-1c-debris",
        "lat": 61.291025657367676,
        "lon": 49.457676570137835,
        "alt_km": 649.7835236667161,
        "timestamp": "2025-12-18T21:31:51.288998+00:00",
        "meta_object_name": "FENGYUN 1C DEB",
        "meta_object_id": "1999-025DMB",
        "meta_epoch": "2025-12-17T22:26:41.000928",
        "meta_mean_motion": 14.74450974,
        "meta_eccentricity": 0.00274772,
        "meta_inclination": 99.4864,
        "meta_ra_of_asc_node": 66.1093,
        "meta_arg_of_pericenter": 183.6043,
        "meta_mean_anomaly": 176.4967,
        "meta_ephemeris_type": 0,
        "meta_classification_type": "U",
        "meta_norad_cat_id": 35147,
        "meta_element_set_no": 999,
        "meta_rev_at_epoch": 74381,
        "meta_bstar": 0.0018360683,
        "meta_mean_motion_dot": 0.00012222,
        "meta_mean_motion_ddot": 0,
        "tle_line1": "1 35147U 99025DMB 25351.93519677  .00012222  00000+0  18361-2 0  9997",
        "tle_line2": "2 35147  99.4864  66.1093 0027477 183.6043 176.4967 14.74450974743817"
      },
      "geometry": {
        "type": "Point",
        "coordinates": [
          49.457676570137835,
          61.291025657367676
        ]
      }
    },
    {
      "type": "Feature",
      "properties": {
        "norad_id": 35152,
        "name": "FENGYUN 1C DEB",
        "group": "fengyun-1c-debris",
        "lat": 32.02562188514183,
        "lon": 2.001063861537466,
        "alt_km": 1094.8221303037053,
        "timestamp": "2025-12-18T21:31:51.289008+00:00",
        "meta_object_name": "FENGYUN 1C DEB",
        "meta_object_id": "1999-025DMG",
        "meta_epoch": "2025-12-16T18:13:57.032832",
        "meta_mean_motion": 13.7643783,
        "meta_eccentricity": 0.01945259,
        "meta_inclination": 99.8194,
        "meta_ra_of_asc_node": 173.5777,
        "meta_arg_of_pericenter": 5.0809,
        "meta_mean_anomaly": 355.2255,
        "meta_ephemeris_type": 0,
        "meta_classification_type": "U",
        "meta_norad_cat_id": 35152,
        "meta_element_set_no": 999,
        "meta_rev_at_epoch": 62248,
        "meta_bstar": 0.00057948786,
        "meta_mean_motion_dot": 6.03e-06,
        "meta_mean_motion_ddot": 0,
        "tle_line1": "1 35152U 99025DMG 25350.75968788  .00000603  00000+0  57949-3 0  9999",
        "tle_line2": "2 35152  99.8194 173.5777 0194525   5.0809 355.2255 13.76437830622484"
      },
      "geometry": {
        "type": "Point",
        "coordinates": [
          2.001063861537466,
          32.02562188514183
        ]
      }
    },
    {
      "type": "Feature",
      "properties": {
        "norad_id": 35153,
        "name": "FENGYUN 1C DEB",
        "group": "fengyun-1c-debris",
        "lat": -2.912443020040488,
        "lon": -114.24294132869232,
        "alt_km": 603.386418886249,
        "timestamp": "2025-12-18T21:31:51.289018+00:00",
        "meta_object_name": "FENGYUN 1C DEB",
        "meta_object_id": "1999-025DMH",
        "meta_epoch": "2025-12-15T23:28:42.248928",
        "meta_mean_motion": 14.73754659,
        "meta_eccentricity": 0.01711481,
        "meta_inclination": 98.903,
        "meta_ra_of_asc_node": 242.0971,
        "meta_arg_of_pericenter": 73.1296,
        "meta_mean_anomaly": 288.8599,
        "meta_ephemeris_type": 0,
        "meta_classification_type": "U",
        "meta_norad_cat_id": 35153,
        "meta_element_set_no": 999,
        "meta_rev_at_epoch": 97265,
        "meta_bstar": 0.00026510273,
        "meta_mean_motion_dot": 2.12e-05,
        "meta_mean_motion_ddot": 0,
        "tle_line1": "1 35153U 99025DMH 25349.97826677  .00002120  00000+0  26510-3 0  9998",
        "tle_line2": "2 35153  98.9030 242.0971 0171148  73.1296 288.8599 14.73754659972652"
      },
      "geometry": {
        "type": "Point",
        "coordinates": [
          -114.24294132869232,
          -2.912443020040488
        ]
      }
    },
    {
      "type": "Feature",
      "properties": {
        "norad_id": 35154,
        "name": "FENGYUN 1C DEB",
        "group": "fengyun-1c-debris",
        "lat": 8.675495527439047,
        "lon": -63.7835230967649,
        "alt_km": 936.9907166236799,
        "timestamp": "2025-12-18T21:31:51.289028+00:00",
        "meta_object_name": "FENGYUN 1C DEB",
        "meta_object_id": "1999-025DMJ",
        "meta_epoch": "2025-12-18T03:48:47.568096",
        "meta_mean_motion": 14.18905648,
        "meta_eccentricity": 0.01791641,
        "meta_inclination": 99.422,
        "meta_ra_of_asc_node": 113.9802,
        "meta_arg_of_pericenter": 27.2396,
        "meta_mean_anomaly": 333.8038,
        "meta_ephemeris_type": 0,
        "meta_classification_type": "U",
        "meta_norad_cat_id": 35154,
        "meta_element_set_no": 999,
        "meta_rev_at_epoch": 64654,
        "meta_bstar": 0.00023097044,
        "meta_mean_motion_dot": 5.14e-06,
        "meta_mean_motion_ddot": 0,
        "tle_line1": "1 35154U 99025DMJ 25352.15888389  .00000514  00000+0  23097-3 0  9993",
        "tle_line2": "2 35154  99.4220 113.9802 0179164  27.2396 333.8038 14.18905648646546"
      },
      "geometry": {
        "type": "Point",
        "coordinates": [
          -63.7835230967649,
          8.675495527439047
        ]
      }
    },
    {
      "type": "Feature",
      "properties": {
        "norad_id": 35155,
        "name": "FENGYUN 1C DEB",
        "group": "fengyun-1c-debris",
        "lat": -60.44731372313232,
        "lon": 19.61341158171533,
        "alt_km": 843.2087307798893,
        "timestamp": "2025-12-18T21:31:51.289038+00:00",
        "meta_object_name": "FENGYUN 1C DEB",
        "meta_object_id": "1999-025DMK",
        "meta_epoch": "2025-12-13T11:32:29.448096",
        "meta_mean_motion": 14.19285709,
        "meta_eccentricity": 0.00260991,
        "meta_inclination": 98.5012,
        "meta_ra_of_asc_node": 359.121,
        "meta_arg_of_pericenter": 70.7543,
        "meta_mean_anomaly": 289.6454,
        "meta_ephemeris_type": 0,
        "meta_classification_type": "U",
        "meta_norad_cat_id": 35155,
        "meta_element_set_no": 999,
        "meta_rev_at_epoch": 72724,
        "meta_bstar": 0.00090034288,
        "meta_mean_motion_dot": 1.854e-05,
        "meta_mean_motion_ddot": 0,
        "tle_line1": "1 35155U 99025DMK 25347.48089639  .00001854  00000+0  90034-3 0  9998",
        "tle_line2": "2 35155  98.5012 359.1210 0026099  70.7543 289.6454 14.19285709727245"
      },
      "geometry": {
        "type": "Point",
        "coordinates": [
          19.61341158171533,
          -60.44731372313232
        ]
      }
    }
  ]
}